OBJECT_NAME,OBJECT_ID,EPOCH,MEAN_MOTION,ECCENTRICITY,INCLINATION,RA_OF_ASC_NODE,ARG_OF_PERICENTER,MEAN_ANOMALY,EPHEMERIS_TYPE,CLASSIFICATION_TYPE,NORAD_CAT_ID,ELEMENT_SET_NO,REV_AT_EPOCH,BSTAR,MEAN_MOTION_DOT,MEAN_MOTION_DDOT
LEMUR-2-GREENBERG,2017-042N,2026-07-09T11:53:19.376160,15.32031511,.00071356,97.3831,11.0293,283.6729,76.3718,0,U,42837,999,49180,.3749711E-3,.11532E-3,0
LEMUR-2-ANDIS,2017-042P,2026-07-11T18:03:36.825984,15.35830402,.0007129,97.3677,13.5506,272.8241,87.2186,0,U,42838,999,49222,.35909E-3,.12453E-3,0
LEMUR-2-MONSON,2017-042Q,2026-07-10T11:15:45.883584,15.28674858,.00051568,97.4089,11.9359,266.7916,93.2733,0,U,42839,999,49172,.34676682E-3,.96E-4,0
LEMUR-2-FURIAUS,2017-042R,2026-07-10T17:54:39.577824,15.31036825,.00063598,97.3778,10.1778,347.2297,12.8782,0,U,42840,999,49181,.40490136E-3,.12077E-3,0
LEMUR-2-DEMBITZ,2017-042T,2026-07-11T11:38:16.488384,15.31034137,.00050207,97.3826,13.9535,291.4687,68.6018,0,U,42842,999,49206,.30474705E-3,.9065E-4,0
LEMUR-2-ZACHARY,2017-042W,2026-07-11T18:21:57.866976,15.52486995,.0002434,97.3581,24.9630,265.2719,94.8256,0,U,42845,999,49301,.51731E-3,.31651E-3,0
LEMUR-2-SPECIAL-K,2021-034F,2026-07-11T18:34:00.361056,15.73471129,.0006864,97.5609,281.5708,215.5770,144.5037,0,U,48273,999,28554,.11555E-2,.163262E-2,0
LEMUR-2-EMBRIONOVIS,2023-084AQ,2026-07-11T20:41:40.628256,15.38173955,.0008045,97.6309,338.0236,219.4230,140.6430,0,U,56970,999,17147,.24216E-3,.9025E-4,0
LEMUR-2-DEVERILL-M-T,2023-100F,2026-07-11T15:49:51.326112,15.40974428,.0004684,99.4462,238.5083,310.9621,49.1213,0,U,57391,999,16501,.39957E-3,.16364E-3,0
LEMUR-2-NIMBUS2000,2024-022A,2026-07-11T13:37:01.030656,15.41012848,.0009121,97.4092,42.8889,40.6540,319.5386,0,U,58899,999,13602,.3224E-3,.13238E-3,0
LEMUR-2-VALHALLA,2024-022B,2026-07-11T13:41:56.084928,15.40414713,.0009603,97.4090,42.8658,36.1879,324.0015,0,U,58900,999,13602,.23837E-3,.9571E-4,0
LEMUR-2-CAEL,2024-022E,2026-07-11T21:13:06.750624,15.41781263,.0007503,97.4069,44.1632,20.9178,339.2374,0,U,58903,999,13614,.25129E-3,.10558E-3,0
LEMUR-2-TOMATOKECHUP,2024-149D,2026-07-11T19:02:16.184832,15.36537067,.0003123,97.3803,274.9096,128.0995,232.0531,0,U,60471,999,10594,.1843E-3,.649E-4,0
LEMUR-2-STELLA,2024-149BT,2026-07-11T18:22:22.823616,15.12328256,.0001185,97.6740,275.3352,113.7387,246.3968,0,U,60533,999,10421,.37867E-3,.6496E-4,0
LEMUR-2-MARHISYAM,2024-149BW,2026-07-11T18:07:21.622368,15.11737522,.0002822,97.6885,275.7985,75.4227,284.7316,0,U,60536,999,10419,.34254E-3,.5773E-4,0
LEMUR-2-AHMED-ASRAR,2024-149DN,2026-07-11T18:21:43.522848,15.13261688,.0000772,97.7007,277.9980,214.4074,145.7107,0,U,60576,999,10428,.3773E-3,.6643E-4,0
LEMUR-2-LLOYD,2024-149DP,2026-07-11T04:07:32.347488,15.09703583,.00047342,97.6747,273.3196,80.8597,279.3167,0,U,60577,999,10401,.40522668E-3,.6469E-4,0
LEMUR-2-SQUIRRELCOMM,2024-149DQ,2026-07-08T00:49:41.985408,15.07397331,.00047468,97.6707,269.8822,354.4134,5.7039,0,U,60578,999,10354,.24740327E-3,.3681E-4,0
LEMUR-2-SIERRINI,2024-149DR,2026-07-10T23:44:06.029952,15.11454053,.00063798,97.6838,274.6929,101.6319,258.5628,0,U,60579,999,10405,.42016557E-3,.7045E-4,0
LEMUR-2-WILSON,2025-009CP,2026-07-11T17:19:46.140384,14.95271639,.0002281,97.7027,270.7566,344.0726,16.0423,0,U,62694,999,8102,.67005E-4,.681E-5,0
LEMUR-2-STAR-FOX,2025-009CR,2026-07-11T19:08:42.825696,15.02816191,.0002707,97.6921,274.2306,55.6079,304.5401,0,U,62696,999,8125,.26155E-3,.3441E-4,0
LEMUR-2-ARIANNA,2025-009CU,2026-07-11T19:06:30.498912,15.02817181,.0002952,97.6857,273.9837,61.1158,299.0362,0,U,62699,999,8125,.27574E-3,.3632E-4,0
LEMUR-2-ALISIA,2025-009DB,2026-07-11T18:27:47.252160,15.03143055,.0003841,97.6972,274.7746,139.3909,220.7603,0,U,62706,999,10385,.36172E-3,.4825E-4,0
